CCSDS_OMM_VERS = 2.0
CREATION_DATE  = 
ORIGINATOR     = 

OBJECT_NAME    = STARLINK-35118
OBJECT_ID      = 2025-281L
CENTER_NAME    = EARTH
REF_FRAME      = TEME
TIME_SYSTEM    = UTC
MEAN_ELEMENT_THEORY = SGP/SGP4

EPOCH          = 2025-12-19T18:00:00.998784
MEAN_MOTION    = 15.75020072
ECCENTRICITY   = .0001696
INCLINATION    = 43.0011
RA_OF_ASC_NODE = 79.3768
ARG_OF_PERICENTER = 276.6801
MEAN_ANOMALY   = 270.0836

EPHEMERIS_TYPE = 0
CLASSIFICATION_TYPE = U
NORAD_CAT_ID   = 66858
ELEMENT_SET_NO = 999
REV_AT_EPOCH   = 231
BSTAR          = .41554E-3
MEAN_MOTION_DOT = .63784E-3
MEAN_MOTION_DDOT = 0

CCSDS_OMM_VERS = 2.0
CREATION_DATE  = 
ORIGINATOR     = 

OBJECT_NAME    = STARLINK-35646
OBJECT_ID      = 2025-281M
CENTER_NAME    = EARTH
REF_FRAME      = TEME
TIME_SYSTEM    = UTC
MEAN_ELEMENT_THEORY = SGP/SGP4

EPOCH          = 2025-12-19T18:00:00.998784
MEAN_MOTION    = 15.75013769
ECCENTRICITY   = .0001669
INCLINATION    = 43.0010
RA_OF_ASC_NODE = 79.3725
ARG_OF_PERICENTER = 274.2907
MEAN_ANOMALY   = 274.4024

EPHEMERIS_TYPE = 0
CLASSIFICATION_TYPE = U
NORAD_CAT_ID   = 66859
ELEMENT_SET_NO = 999
REV_AT_EPOCH   = 252
BSTAR          = .3572E-3
MEAN_MOTION_DOT = .54688E-3
MEAN_MOTION_DDOT = 0

CCSDS_OMM_VERS = 2.0
CREATION_DATE  = 
ORIGINATOR     = 

OBJECT_NAME    = STARLINK-35987
OBJECT_ID      = 2025-281N
CENTER_NAME    = EARTH
REF_FRAME      = TEME
TIME_SYSTEM    = UTC
MEAN_ELEMENT_THEORY = SGP/SGP4

EPOCH          = 2025-12-19T18:00:00.998784
MEAN_MOTION    = 15.75015927
ECCENTRICITY   = .0001564
INCLINATION    = 43.0009
RA_OF_ASC_NODE = 79.3483
ARG_OF_PERICENTER = 273.2953
MEAN_ANOMALY   = 284.9643

EPHEMERIS_TYPE = 0
CLASSIFICATION_TYPE = U
NORAD_CAT_ID   = 66860
ELEMENT_SET_NO = 999
REV_AT_EPOCH   = 252
BSTAR          = .47347E-3
MEAN_MOTION_DOT = .72807E-3
MEAN_MOTION_DDOT = 0

CCSDS_OMM_VERS = 2.0
CREATION_DATE  = 
ORIGINATOR     = 

OBJECT_NAME    = STARLINK-35991
OBJECT_ID      = 2025-281P
CENTER_NAME    = EARTH
REF_FRAME      = TEME
TIME_SYSTEM    = UTC
MEAN_ELEMENT_THEORY = SGP/SGP4

EPOCH          = 2025-12-19T18:00:00.998784
MEAN_MOTION    = 15.75006147
ECCENTRICITY   = .0001635
INCLINATION    = 43.0006
RA_OF_ASC_NODE = 79.3629
ARG_OF_PERICENTER = 277.4850
MEAN_ANOMALY   = 275.0277

EPHEMERIS_TYPE = 0
CLASSIFICATION_TYPE = U
NORAD_CAT_ID   = 66861
ELEMENT_SET_NO = 999
REV_AT_EPOCH   = 252
BSTAR          = .60009E-3
MEAN_MOTION_DOT = .92586E-3
MEAN_MOTION_DDOT = 0

CCSDS_OMM_VERS = 2.0
CREATION_DATE  = 
ORIGINATOR     = 

OBJECT_NAME    = STARLINK-35974
OBJECT_ID      = 2025-281Q
CENTER_NAME    = EARTH
REF_FRAME      = TEME
TIME_SYSTEM    = UTC
MEAN_ELEMENT_THEORY = SGP/SGP4

EPOCH          = 2025-12-19T18:00:00.998784
MEAN_MOTION    = 15.75029112
ECCENTRICITY   = .0001746
INCLINATION    = 43.0009
RA_OF_ASC_NODE = 79.3679
ARG_OF_PERICENTER = 277.7979
MEAN_ANOMALY   = 272.7970

EPHEMERIS_TYPE = 0
CLASSIFICATION_TYPE = U
NORAD_CAT_ID   = 66862
ELEMENT_SET_NO = 999
REV_AT_EPOCH   = 242
BSTAR          = .25715E-3
MEAN_MOTION_DOT = .3919E-3
MEAN_MOTION_DDOT = 0

CCSDS_OMM_VERS = 2.0
CREATION_DATE  = 
ORIGINATOR     = 

OBJECT_NAME    = STARLINK-36134
OBJECT_ID      = 2025-281R
CENTER_NAME    = EARTH
REF_FRAME      = TEME
TIME_SYSTEM    = UTC
MEAN_ELEMENT_THEORY = SGP/SGP4

EPOCH          = 2025-12-19T18:00:00.998784
MEAN_MOTION    = 15.75031822
ECCENTRICITY   = .0001585
INCLINATION    = 43.0006
RA_OF_ASC_NODE = 79.3591
ARG_OF_PERICENTER = 279.3343
MEAN_ANOMALY   = 275.0899

EPHEMERIS_TYPE = 0
CLASSIFICATION_TYPE = U
NORAD_CAT_ID   = 66863
ELEMENT_SET_NO = 999
REV_AT_EPOCH   = 252
BSTAR          = .25329E-3
MEAN_MOTION_DOT = .38596E-3
MEAN_MOTION_DDOT = 0

CCSDS_OMM_VERS = 2.0
CREATION_DATE  = 
ORIGINATOR     = 

OBJECT_NAME    = STARLINK-36070
OBJECT_ID      = 2025-281S
CENTER_NAME    = EARTH
REF_FRAME      = TEME
TIME_SYSTEM    = UTC
MEAN_ELEMENT_THEORY = SGP/SGP4

EPOCH          = 2025-12-19T18:00:00.998784
MEAN_MOTION    = 15.75005108
ECCENTRICITY   = .0001525
INCLINATION    = 43.0008
RA_OF_ASC_NODE = 79.3531
ARG_OF_PERICENTER = 286.8176
MEAN_ANOMALY   = 269.5398

EPHEMERIS_TYPE = 0
CLASSIFICATION_TYPE = U
NORAD_CAT_ID   = 66864
ELEMENT_SET_NO = 999
REV_AT_EPOCH   = 255
BSTAR          = .4899E-3
MEAN_MOTION_DOT = .75337E-3
MEAN_MOTION_DDOT = 0

CCSDS_OMM_VERS = 2.0
CREATION_DATE  = 
ORIGINATOR     = 

OBJECT_NAME    = STARLINK-36117
OBJECT_ID      = 2025-281T
CENTER_NAME    = EARTH
REF_FRAME      = TEME
TIME_SYSTEM    = UTC
MEAN_ELEMENT_THEORY = SGP/SGP4

EPOCH          = 2025-12-19T18:00:00.998784
MEAN_MOTION    = 15.75026065
ECCENTRICITY   = .0001596
INCLINATION    = 43.0008
RA_OF_ASC_NODE = 79.3440
ARG_OF_PERICENTER = 273.6060
MEAN_ANOMALY   = 286.5806

EPHEMERIS_TYPE = 0
CLASSIFICATION_TYPE = U
NORAD_CAT_ID   = 66865
ELEMENT_SET_NO = 999
REV_AT_EPOCH   = 252
BSTAR          = .2596E-3
MEAN_MOTION_DOT = .39563E-3
MEAN_MOTION_DDOT = 0

CCSDS_OMM_VERS = 2.0
CREATION_DATE  = 
ORIGINATOR     = 

OBJECT_NAME    = STARLINK-36126
OBJECT_ID      = 2025-281U
CENTER_NAME    = EARTH
REF_FRAME      = TEME
TIME_SYSTEM    = UTC
MEAN_ELEMENT_THEORY = SGP/SGP4

EPOCH          = 2025-12-19T18:00:00.998784
MEAN_MOTION    = 15.75003263
ECCENTRICITY   = .0001627
INCLINATION    = 43.0007
RA_OF_ASC_NODE = 79.3389
ARG_OF_PERICENTER = 272.7561
MEAN_ANOMALY   = 289.3552

EPHEMERIS_TYPE = 0
CLASSIFICATION_TYPE = U
NORAD_CAT_ID   = 66866
ELEMENT_SET_NO = 999
REV_AT_EPOCH   = 255
BSTAR          = .50471E-3
MEAN_MOTION_DOT = .77645E-3
MEAN_MOTION_DDOT = 0

CCSDS_OMM_VERS = 2.0
CREATION_DATE  = 
ORIGINATOR     = 

OBJECT_NAME    = STARLINK-36101
OBJECT_ID      = 2025-281V
CENTER_NAME    = EARTH
REF_FRAME      = TEME
TIME_SYSTEM    = UTC
MEAN_ELEMENT_THEORY = SGP/SGP4

EPOCH          = 2025-12-19T18:00:00.998784
MEAN_MOTION    = 15.75026063
ECCENTRICITY   = .0001633
INCLINATION    = 43.0007
RA_OF_ASC_NODE = 79.3343
ARG_OF_PERICENTER = 286.4055
MEAN_ANOMALY   = 277.6076

EPHEMERIS_TYPE = 0
CLASSIFICATION_TYPE = U
NORAD_CAT_ID   = 66867
ELEMENT_SET_NO = 999
REV_AT_EPOCH   = 236
BSTAR          = .3236E-3
MEAN_MOTION_DOT = .49494E-3
MEAN_MOTION_DDOT = 0

CCSDS_OMM_VERS = 2.0
CREATION_DATE  = 
ORIGINATOR     = 

OBJECT_NAME    = STARLINK-36108
OBJECT_ID      = 2025-281W
CENTER_NAME    = EARTH
REF_FRAME      = TEME
TIME_SYSTEM    = UTC
MEAN_ELEMENT_THEORY = SGP/SGP4

EPOCH          = 2025-12-19T18:00:00.998784
MEAN_MOTION    = 15.75029428
ECCENTRICITY   = .000163
INCLINATION    = 43.0009
RA_OF_ASC_NODE = 79.3290
ARG_OF_PERICENTER = 273.6204
MEAN_ANOMALY   = 292.3080

EPHEMERIS_TYPE = 0
CLASSIFICATION_TYPE = U
NORAD_CAT_ID   = 66868
ELEMENT_SET_NO = 999
REV_AT_EPOCH   = 236
BSTAR          = .27254E-3
MEAN_MOTION_DOT = .41576E-3
MEAN_MOTION_DDOT = 0

CCSDS_OMM_VERS = 2.0
CREATION_DATE  = 
ORIGINATOR     = 

OBJECT_NAME    = STARLINK-36092
OBJECT_ID      = 2025-281X
CENTER_NAME    = EARTH
REF_FRAME      = TEME
TIME_SYSTEM    = UTC
MEAN_ELEMENT_THEORY = SGP/SGP4

EPOCH          = 2025-12-19T18:00:00.998784
MEAN_MOTION    = 15.75004432
ECCENTRICITY   = .0001563
INCLINATION    = 43.0019
RA_OF_ASC_NODE = 79.3239
ARG_OF_PERICENTER = 278.6718
MEAN_ANOMALY   = 289.1893

EPHEMERIS_TYPE = 0
CLASSIFICATION_TYPE = U
NORAD_CAT_ID   = 66869
ELEMENT_SET_NO = 999
REV_AT_EPOCH   = 255
BSTAR          = .52025E-3
MEAN_MOTION_DOT = .80077E-3
MEAN_MOTION_DDOT = 0

