STARLINK-35118          
1 66858U 25281L   25353.75001156  .00063784  00000+0  41554-3 0  9993
2 66858  43.0011  79.3768 0001696 276.6801 270.0836 15.75020072  2317
STARLINK-35646          
1 66859U 25281M   25353.75001156  .00054688  00000+0  35720-3 0  9995
2 66859  43.0010  79.3725 0001669 274.2907 274.4024 15.75013769  2526
STARLINK-35987          
1 66860U 25281N   25353.75001156  .00072807  00000+0  47347-3 0  9998
2 66860  43.0009  79.3483 0001564 273.2953 284.9643 15.75015927  2522
STARLINK-35991          
1 66861U 25281P   25353.75001156  .00092586  00000+0  60009-3 0  9995
2 66861  43.0006  79.3629 0001635 277.4850 275.0277 15.75006147  2521
STARLINK-35974          
1 66862U 25281Q   25353.75001156  .00039190  00000+0  25715-3 0  9993
2 66862  43.0009  79.3679 0001746 277.7979 272.7970 15.75029112  2428
STARLINK-36134          
1 66863U 25281R   25353.75001156  .00038596  00000+0  25329-3 0  9994
2 66863  43.0006  79.3591 0001585 279.3343 275.0899 15.75031822  2521
STARLINK-36070          
1 66864U 25281S   25353.75001156  .00075337  00000+0  48990-3 0  9998
2 66864  43.0008  79.3531 0001525 286.8176 269.5398 15.75005108  2552
STARLINK-36117          
1 66865U 25281T   25353.75001156  .00039563  00000+0  25960-3 0  9992
2 66865  43.0008  79.3440 0001596 273.6060 286.5806 15.75026065  2521
STARLINK-36126          
1 66866U 25281U   25353.75001156  .00077645  00000+0  50471-3 0  9991
2 66866  43.0007  79.3389 0001627 272.7561 289.3552 15.75003263  2551
STARLINK-36101          
1 66867U 25281V   25353.75001156  .00049494  00000+0  32360-3 0  9990
2 66867  43.0007  79.3343 0001633 286.4055 277.6076 15.75026063  2362
STARLINK-36108          
1 66868U 25281W   25353.75001156  .00041576  00000+0  27254-3 0  9990
2 66868  43.0009  79.3290 0001630 273.6204 292.3080 15.75029428  2364
STARLINK-36092          
1 66869U 25281X   25353.75001156  .00080077  00000+0  52025-3 0  9994
2 66869  43.0019  79.3239 0001563 278.6718 289.1893 15.75004432  2554
